0 COSMOS 1242
1 12154U 81008A   13281.97222829  .00050101  00000-0  65710-3 0  4372
2 12154 081.1550 055.2619 0003450 088.3488 052.2086 15.58336860795610
0 COSMOS 1242
1 12154U 81008A   13282.93519291  .00044247  00000-0  57880-3 0  4385
2 12154 081.1548 054.0667 0003388 086.2076 053.3164 15.58423652795768
0 COSMOS 1242
1 12154U 81008A   13283.96249362  .00041647  00000-0  54336-3 0  4393
2 12154 081.1545 052.7913 0003380 082.5395 056.9692 15.58500575795922
0 COSMOS 1242
1 12154U 81008A   13285.35992304  .00039778  00000-0  51692-3 0  4405
2 12154 081.1548 051.0562 0003322 077.0044 338.2236 15.58611280796144
0 COSMOS 1242
1 12154U 81008A   13286.38660001  .00039265  00000-0  50883-3 0  4418
2 12154 081.1551 049.7810 0003329 074.3759 338.0250 15.58686859796304
0 COSMOS 1242
1 12154U 81008A   13287.49167927  .00042729  00000-0  55188-3 0  4423
2 12154 081.1558 048.4090 0003316 070.7575 058.7794 15.58766407796474
0 COSMOS 1242
1 12154U 81008A   13288.11992941  .00059945  00000-0  77090-3 0  4430
2 12154 081.1558 047.6284 0003345 066.8011 346.0405 15.58832265796572
0 COSMOS 1242
1 12154U 81008A   13288.83790689  .00049871  00000-0  64041-3 0  4444
2 12154 081.1564 046.7369 0003287 064.6405 054.8841 15.58900822796686
0 COSMOS 1242
1 12154U 81008A   13290.29855595  .00053270  00000-0  68046-3 0  4453
2 12154 081.1569 044.9223 0003317 059.0312 332.8762 15.59030711796907
0 COSMOS 1242
1 12154U 81008A   13291.39493914  .00047316  00000-0  60247-3 0  4468
2 12154 081.1578 043.5605 0003274 056.4694 005.2142 15.59132890797086
0 COSMOS 1242
1 12154U 81008A   13292.41814340  .00046701  00000-0  59271-3 0  4475
2 12154 081.1576 042.2896 0003341 052.0546 349.2802 15.59220836797245
0 COSMOS 1242
1 12154U 81008A   13293.44544525  .00048609  00000-0  61464-3 0  4481
2 12154 081.1574 041.0131 0003346 048.5565 355.7470 15.59313419797409
0 COSMOS 1242
1 12154U 81008A   13294.74898481  .00053965  00000-0  67934-3 0  4498
2 12154 081.1571 039.3931 0003343 043.9318 113.4468 15.59415990797601
0 COSMOS 1242
1 12154U 81008A   13295.83728102  .00051865  00000-0  65071-3 0  4500
2 12154 081.1570 038.0403 0003349 039.8637 103.4248 15.59510965797775
